NORAD_CAT_ID,OBJECT_NAME,OBJECT_TYPE,EPOCH,MEAN_MOTION,ECCENTRICITY,INCLINATION,RA_OF_ASC_NODE,ARG_OF_PERICENTER,MEAN_ANOMALY,BSTAR,MEAN_MOTION_DOT,MEAN_MOTION_DDOT,TLE_LINE0,TLE_LINE1,TLE_LINE2,SEMIMAJOR_AXIS,PERIOD,APOGEE,PERIGEE,DECAYED
49763.0,STARLINK-3198,PAYLOAD,2023-05-14 20:43:47,15.08838129,0.0001277,53.2173,82.1846,105.8074,254.3059,-4.5593e-05,-1.013e-05,0.0,0 STARLINK-3198,1 49763U 21115AR  23134.86373923 -.00001013  00000-0 -45593-4 0  9990,2 49763  53.2173  82.1846 0001277 105.8074 254.3059 15.08838129 80217,6917.886,95.438,540.635,538.868,0.0
49763.0,STARLINK-3198,PAYLOAD,2023-05-15 06:16:05,15.08839565,0.0001153,53.2179,80.4027,96.049,264.0634,8.1516e-07,-2.75e-06,0.0,0 STARLINK-3198,1 49763U 21115AR  23135.26117758 -.00000275  00000-0  81516-6 0  9992,2 49763  53.2179  80.4027 0001153  96.0490 264.0634 15.08839565 81382,6917.882,95.438,540.544,538.949,0.0
49763.0,STARLINK-3198,PAYLOAD,2023-05-15 07:51:28,15.08841536,0.0001199,53.218,80.1051,88.3991,271.7139,-3.7823e-06,-3.48e-06,0.0,0 STARLINK-3198,1 49763U 21115AR  23135.32741670 -.00000348  00000-0 -37823-5 0  9998,2 49763  53.2180  80.1051 0001199  88.3991 271.7139 15.08841536 80282,6917.876,95.437,540.57,538.911,0.0
49763.0,STARLINK-3198,PAYLOAD,2023-05-16 06:06:52,15.08847357,0.000115,53.218,75.9419,87.174,272.9384,0.00018026,2.583e-05,0.0,0 STARLINK-3198,1 49763U 21115AR  23136.25476955  .00002583  00000-0  18026-3 0  9995,2 49763  53.2180  75.9419 0001150  87.1740 272.9384 15.08847357 81539,6917.858,95.437,540.518,538.927,0.0
49763.0,STARLINK-3198,PAYLOAD,2023-05-17 02:46:53,15.08840701,0.0001048,53.2184,72.077,91.3527,268.7585,0.00011927,1.611e-05,0.0,0 STARLINK-3198,1 49763U 21115AR  23137.11589563  .00001611  00000-0  11927-3 0  9995,2 49763  53.2184  72.0770 0001048  91.3527 268.7585 15.08840701 81663,6917.878,95.438,540.468,539.018,0.0
49763.0,STARLINK-3198,PAYLOAD,2023-05-17 05:57:39,15.08843209,0.0001032,53.2184,71.481,83.5558,276.5552,0.00013249,1.822e-05,0.0,0 STARLINK-3198,1 49763U 21115AR  23137.24837386  .00001822  00000-0  13249-3 0  9991,2 49763  53.2184  71.4810 0001032  83.5558 276.5552 15.08843209 80577,6917.871,95.437,540.45,539.022,0.0
49763.0,STARLINK-3198,PAYLOAD,2023-05-18 02:37:40,15.08839694,8.13e-05,53.2175,67.6151,87.0261,273.0824,-4.1284e-05,-9.45e-06,0.0,0 STARLINK-3198,1 49763U 21115AR  23138.10950061 -.00000945  00000-0 -41284-4 0  9991,2 49763  53.2175  67.6151 0000813  87.0261 273.0824 15.08839694 81813,6917.881,95.438,540.309,539.184,0.0
49763.0,STARLINK-3198,PAYLOAD,2023-05-18 05:48:26,15.08842091,9.93e-05,53.2174,67.0206,95.4226,264.688,-2.764e-05,-7.28e-06,0.0,0 STARLINK-3198,1 49763U 21115AR  23138.24197839 -.00000728  00000-0 -27640-4 0  9991,2 49763  53.2174  67.0206 0000993  95.4226 264.6880 15.08842091 80722,6917.874,95.437,540.426,539.052,0.0
49763.0,STARLINK-3198,PAYLOAD,2023-05-19 04:03:50,15.08843458,9.56e-05,53.2172,62.8582,89.5178,270.5923,4.7715e-05,4.72e-06,0.0,0 STARLINK-3198,1 49763U 21115AR  23139.16933668  .00000472  00000-0  47715-4 0  9990,2 49763  53.2172  62.8582 0000956  89.5178 270.5923 15.08843458 81979,6917.87,95.437,540.396,539.073,0.0
49763.0,STARLINK-3198,PAYLOAD,2023-05-20 02:19:14,15.08843413,9.99e-05,53.2175,58.695,76.6373,283.473,9.9016e-05,1.289e-05,0.0,0 STARLINK-3198,1 49763U 21115AR  23140.09669650  .00001289  00000-0  99016-4 0  9999,2 49763  53.2175  58.6950 0000999  76.6373 283.4730 15.08843413 81009,6917.87,95.437,540.426,539.044,0.0
49763.0,STARLINK-3198,PAYLOAD,2023-05-21 00:34:37,15.08854829,0.0001076,53.2177,54.5305,97.377,262.7345,9.4611e-05,1.219e-05,0.0,0 STARLINK-3198,1 49763U 21115AR  23141.02404615  .00001219  00000-0  94611-4 0  9990,2 49763  53.2177  54.5305 0001076  97.3770 262.7345 15.08854829 82251,6917.835,95.437,540.444,538.956,0.0
49763.0,STARLINK-3198,PAYLOAD,2023-05-22 03:36:12,15.08832537,0.0001054,53.2183,49.4769,102.9286,257.1824,-6.7547e-05,-1.362e-05,0.0,0 STARLINK-3198,1 49763U 21115AR  23142.15014826 -.00001362  00000-0 -67547-4 0  9995,2 49763  53.2183  49.4769 0001054 102.9286 257.1824 15.08832537 82427,6917.903,95.438,540.497,539.039,0.0
49763.0,STARLINK-3198,PAYLOAD,2023-05-22 21:05:26,15.08869208,8.22e-05,53.2173,46.2106,57.6072,302.5,-0.00027176,-4.614e-05,0.0,0 STARLINK-3198,1 49763U 21115AR  23142.87877452 -.00004614  00000-0 -27176-3 0  9992,2 49763  53.2173  46.2106 0000822  57.6072 302.5000 15.08869208 81422,6917.791,95.436,540.225,539.087,0.0
49763.0,STARLINK-3198,PAYLOAD,2023-05-23 00:16:12,15.08853219,8.06e-05,53.2164,45.616,78.234,281.8743,1.2139e-05,-9.4e-07,0.0,0 STARLINK-3198,1 49763U 21115AR  23143.01125176 -.00000094  00000-0  12139-4 0  9999,2 49763  53.2164  45.6160 0000806  78.2340 281.8743 15.08853219 82557,6917.84,95.437,540.263,539.147,0.0
49763.0,STARLINK-3198,PAYLOAD,2023-05-24 00:07:00,15.08830873,0.0001084,53.2177,41.1543,109.2484,250.8625,0.00014856,2.077e-05,0.0,0 STARLINK-3198,1 49763U 21115AR  23144.00486463  .00002077  00000-0  14856-3 0  9997,2 49763  53.2177  41.1543 0001084 109.2484 250.8625 15.08830873 82703,6917.908,95.438,540.523,539.023,0.0
49763.0,STARLINK-3198,PAYLOAD,2023-05-24 16:00:51,15.08838849,0.0001038,53.2173,38.1789,102.6832,257.4276,-5.3577e-05,-1.14e-05,0.0,0 STARLINK-3198,1 49763U 21115AR  23144.66726843 -.00001140  00000-0 -53577-4 0  9994,2 49763  53.2173  38.1789 0001038 102.6832 257.4276 15.08838849 81693,6917.884,95.438,540.467,539.031,0.0
49763.0,STARLINK-3198,PAYLOAD,2023-05-25 15:51:39,15.08838316,9.31e-05,53.2185,33.717,85.3808,274.7291,8.594e-05,1.08e-05,0.0,0 STARLINK-3198,1 49763U 21115AR  23145.66086925  .00001080  00000-0  85940-4 0  9995,2 49763  53.2185  33.7170 0000931  85.3808 274.7291 15.08838316 82950,6917.886,95.438,540.395,539.106,0.0
49763.0,STARLINK-3198,PAYLOAD,2023-05-25 22:13:11,15.08845533,9.65e-05,53.2184,32.5282,88.6889,271.4214,0.00014303,1.99e-05,0.0,0 STARLINK-3198,1 49763U 21115AR  23145.92582267  .00001990  00000-0  14303-3 0  9998,2 49763  53.2184  32.5282 0000965  88.6889 271.4214 15.08845533 81881,6917.863,95.437,540.396,539.061,0.0
49763.0,STARLINK-3198,PAYLOAD,2023-05-25 23:48:34,15.08847435,9.64e-05,53.2184,32.2308,87.7665,272.3437,0.0001589,2.243e-05,0.0,0 STARLINK-3198,1 49763U 21115AR  23145.99206103  .00002243  00000-0  15890-3 0  9991,2 49763  53.2184  32.2308 0000964  87.7665 272.3437 15.08847435 83004,6917.858,95.437,540.39,539.056,0.0
49763.0,STARLINK-3198,PAYLOAD,2023-05-26 15:42:26,15.08826652,0.0001058,53.218,29.2602,54.7274,305.3817,0.00023729,3.489e-05,0.0,0 STARLINK-3198,1 49763U 21115AR  23146.65447186  .00003489  00000-0  23729-3 0  9996,2 49763  53.2180  29.2602 0001058  54.7274 305.3817 15.08826652 83106,6917.921,95.438,540.518,539.054,0.0
49763.0,STARLINK-3198,PAYLOAD,2023-05-26 22:03:59,15.08833273,9.89e-05,53.2183,28.0682,85.2524,274.8581,0.00011968,1.617e-05,0.0,0 STARLINK-3198,1 49763U 21115AR  23146.91943312  .00001617  00000-0  11968-3 0  9990,2 49763  53.2183  28.0682 0000989  85.2524 274.8581 15.08833273 82039,6917.901,95.438,540.45,539.082,0.0
49763.0,STARLINK-3198,PAYLOAD,2023-05-27 20:19:22,15.08843964,0.0001053,53.2186,23.9038,91.9344,268.1769,-5.4491e-05,-1.155e-05,0.0,0 STARLINK-3198,1 49763U 21115AR  23147.84679282 -.00001155  00000-0 -54491-4 0  9993,2 49763  53.2186  23.9038 0001053  91.9344 268.1769 15.08843964 83288,6917.868,95.437,540.462,539.005,0.0
49763.0,STARLINK-3198,PAYLOAD,2023-05-27 21:54:45,15.0884439,9.42e-05,53.2184,23.6069,94.9087,265.2013,-4.1205e-05,-9.44e-06,0.0,0 STARLINK-3198,1 49763U 21115AR  23147.91303148 -.00000944  00000-0 -41205-4 0  9990,2 49763  53.2184  23.6069 0000942  94.9087 265.2013 15.08844390 82182,6917.867,95.437,540.384,539.08,0.0
49763.0,STARLINK-3198,PAYLOAD,2023-05-28 01:05:32,15.0884665,9.47e-05,53.2185,23.012,95.6623,264.4477,-3.3067e-05,-8.14e-06,0.0,0 STARLINK-3198,1 49763U 21115AR  23148.04550940 -.00000814  00000-0 -33067-4 0  9992,2 49763  53.2185  23.0120 0000947  95.6623 264.4477 15.08846650 82203,6917.86,95.437,540.38,539.07,0.0
49763.0,STARLINK-3198,PAYLOAD,2023-05-28 21:45:32,15.08848423,9.61e-05,53.2184,19.1462,94.3059,265.8043,0.00010708,1.417e-05,0.0,0 STARLINK-3198,1 49763U 21115AR  23148.90662312  .00001417  00000-0  10708-3 0  9998,2 49763  53.2184  19.1462 0000961  94.3059 265.8043 15.08848423 82330,6917.855,95.437,540.384,539.055,0.0
49763.0,STARLINK-3198,PAYLOAD,2023-05-29 21:36:20,15.08834474,9.73e-05,53.2177,14.6879,80.7078,279.4024,3.9029e-05,3.33e-06,0.0,0 STARLINK-3198,1 49763U 21115AR  23149.90023587  .00000333  00000-0  39029-4 0  9998,2 49763  53.2177  14.6879 0000973  80.7078 279.4024 15.08834474 82484,6917.897,95.438,540.435,539.089,0.0
49763.0,STARLINK-3198,PAYLOAD,2023-05-30 00:47:06,15.08839229,9.12e-05,53.2178,14.0925,77.5005,282.6089,1.8581e-05,8e-08,0.0,0 STARLINK-3198,1 49763U 21115AR  23150.03271352  .00000008  00000-0  18581-4 0  9998,2 49763  53.2178  14.0925 0000912  77.5005 282.6089 15.08839229 83614,6917.883,95.438,540.379,539.117,0.0
49763.0,STARLINK-3198,PAYLOAD,2023-05-30 21:27:06,15.08850933,9.02e-05,53.2178,10.2262,73.8525,286.2567,-1.0502e-05,-4.55e-06,0.0,0 STARLINK-3198,1 49763U 21115AR  23150.89382620 -.00000455  00000-0 -10502-4 0  9996,2 49763  53.2178  10.2262 0000902  73.8525 286.2567 15.08850933 82638,6917.847,95.437,540.336,539.088,0.0
49763.0,STARLINK-3198,PAYLOAD,2023-05-31 18:07:08,15.08835992,0.0001001,53.2184,6.3605,72.8598,287.2504,6.4558e-05,7.4e-06,0.0,0 STARLINK-3198,1 49763U 21115AR  23151.75495408  .00000740  00000-0  64558-4 0  9996,2 49763  53.2184   6.3605 0001001  72.8598 287.2504 15.08835992 83879,6917.893,95.438,540.45,539.065,0.0
49763.0,STARLINK-3198,PAYLOAD,2023-05-31 21:17:53,15.08840554,9.94e-05,53.2181,5.7662,72.4055,287.7046,9.4576e-05,1.218e-05,0.0,0 STARLINK-3198,1 49763U 21115AR  23151.88743047  .00001218  00000-0  94576-4 0  9999,2 49763  53.2181   5.7662 0000994  72.4055 287.7046 15.08840554 82781,6917.879,95.438,540.431,539.056,0.0
